{
  "norad_id": 68092,
  "name": "STARLINK-36896",
  "history": [
    {
      "epoch": "2026-03-28T13:04:57.966240Z",
      "apogee_km": 346.49796301061724,
      "perigee_km": 340.5560120456412,
      "latitude_deg": 2.295130751366468e-05,
      "longitude_deg": 78.18456510386417,
      "height_km": 347.39912184767473,
      "semi_major_axis_km": 6721.663987528129,
      "eccentricity": 0.000442,
      "inclination_deg": 53.1599,
      "raan_deg": 100.3901,
      "arg_perigee_deg": 174.1508,
      "mean_anomaly_deg": 185.9565,
      "mean_motion_rev_day": 15.75388113
    },
    {
      "epoch": "2026-03-29T04:19:03.176832Z",
      "apogee_km": 364.712063872661,
      "perigee_km": 340.0165085532881,
      "latitude_deg": -4.561863210248354e-05,
      "longitude_deg": -154.1132670783052,
      "height_km": 358.38541895562577,
      "semi_major_axis_km": 6730.501286212974,
      "eccentricity": 0.0018346,
      "inclination_deg": 53.159,
      "raan_deg": 97.2397,
      "arg_perigee_deg": 114.6196,
      "mean_anomaly_deg": 245.6736,
      "mean_motion_rev_day": 15.72286352
    },
    {
      "epoch": "2026-03-30T04:00:01.999584Z",
      "apogee_km": 344.7516232343487,
      "perigee_km": 343.2660290067761,
      "latitude_deg": -16.83545958508359,
      "longitude_deg": 37.78889054077829,
      "height_km": 348.5676355862797,
      "semi_major_axis_km": 6722.145826120563,
      "eccentricity": 0.0001105,
      "inclination_deg": 53.1589,
      "raan_deg": 92.3312,
      "arg_perigee_deg": 112.6417,
      "mean_anomaly_deg": 88.3404,
      "mean_motion_rev_day": 15.75218732
    }
  ]
}